OBJECT_NAME,OBJECT_ID,EPOCH,MEAN_MOTION,ECCENTRICITY,INCLINATION,RA_OF_ASC_NODE,ARG_OF_PERICENTER,MEAN_ANOMALY,EPHEMERIS_TYPE,CLASSIFICATION_TYPE,NORAD_CAT_ID,ELEMENT_SET_NO,REV_AT_EPOCH,BSTAR,MEAN_MOTION_DOT,MEAN_MOTION_DDOT
STARLINK-35563,2025-236B,2026-07-02T13:30:13.061088,15.34415564,.00020167,53.1598,289.4888,89.3784,270.7450,0,U,66087,999,4048,.11030784E-2,.37097E-3,0
STARLINK-35461,2025-236C,2026-07-02T00:43:23.026368,15.30214371,.00013864,53.1615,292.5602,55.4245,304.6886,0,U,66088,999,4039,.12205019E-2,.3598E-3,0
STARLINK-35571,2025-236D,2026-07-02T13:29:30.784704,15.30221095,.00021409,53.1606,290.1929,90.5651,269.5595,0,U,66089,999,4053,.81823479E-3,.23969E-3,0
STARLINK-35570,2025-236E,2026-07-02T00:34:15.799008,15.30195084,.00019828,53.1618,292.5192,85.8538,274.2689,0,U,66090,999,4045,.30736755E-3,.8753E-4,0
STARLINK-35532,2025-236F,2026-07-02T11:23:31.449984,15.30183506,.00011893,53.1597,290.3560,122.4791,237.6325,0,U,66091,999,4052,.5618604E-3,.1631E-3,0
STARLINK-35527,2025-236G,2026-07-02T14:06:26.282016,15.34371981,.00012228,53.1578,288.9399,114.4290,245.6841,0,U,66092,999,4055,.11223999E-2,.37703E-3,0
STARLINK-35500,2025-236H,2026-07-02T01:01:37.079328,15.30215925,.0001213,53.1600,292.6372,66.4931,293.6197,0,U,66093,999,4045,.10985385E-2,.32334E-3,0
STARLINK-35528,2025-236J,2026-07-02T13:24:56.839680,15.30168332,.00021566,53.1596,290.1706,79.3777,280.7467,0,U,66094,999,4053,.71519443E-3,.20862E-3,0
STARLINK-35559,2025-236K,2026-07-02T13:20:22.943040,15.30180430,.00013288,53.1596,290.1518,97.1287,262.9865,0,U,66095,999,4053,.93906999E-3,.2754E-3,0
STARLINK-34386,2025-236L,2026-07-02T00:38:49.223040,15.30213979,.00011979,53.1595,292.5384,101.0153,259.0982,0,U,66096,999,4045,.93361834E-3,.27406E-3,0
STARLINK-35613,2025-236M,2026-07-02T13:23:25.018944,15.30200005,.00033136,53.1599,290.1636,93.9150,266.2229,0,U,66097,999,4053,.70557125E-3,.20597E-3,0
STARLINK-34206,2025-236N,2026-07-02T14:15:31.776192,15.34372210,.00013185,53.1587,288.9763,49.5409,310.5708,0,U,66098,999,4054,.68334523E-3,.22761E-3,0
STARLINK-34460,2025-236P,2026-07-02T11:28:05.773440,15.30209370,.00015882,53.1584,290.3765,51.8061,308.3083,0,U,66099,999,4052,.11913832E-2,.35103E-3,0
STARLINK-35609,2025-236Q,2026-07-02T00:38:37.021632,15.34409822,.00013025,53.1611,291.8329,116.9943,243.1192,0,U,66100,999,4040,.55514842E-3,.18432E-3,0
STARLINK-35595,2025-236R,2026-07-02T15:10:04.646208,15.34400157,.00011816,53.1590,289.2113,72.3955,287.7177,0,U,66101,999,4049,.89356463E-3,.29935E-3,0
STARLINK-35599,2025-236S,2026-07-02T14:12:29.786688,15.34384567,.00010566,53.1582,288.9625,98.7688,261.3434,0,U,66102,999,4049,.85044872E-3,.28452E-3,0
STARLINK-35622,2025-236T,2026-07-02T13:15:03.431520,15.34403072,.00035722,53.1592,289.4216,92.0399,268.1013,0,U,66103,999,4054,.69436585E-3,.23161E-3,0
STARLINK-35452,2025-236U,2026-07-02T11:14:01.122720,15.34386801,.00011973,53.1586,289.6099,84.1522,275.9617,0,U,66104,999,4053,.11059564E-2,.3716E-3,0
STARLINK-35561,2025-236V,2026-07-02T13:45:21.755808,15.34356293,.00014071,53.1600,289.5525,59.1252,300.9889,0,U,66105,999,4048,.92814631E-3,.31069E-3,0
STARLINK-35584,2025-236W,2026-07-02T14:09:28.264608,15.34362624,.00012334,53.1571,288.9489,71.5856,288.5280,0,U,66106,999,4055,.45562717E-3,.15031E-3,0
STARLINK-35593,2025-236X,2026-07-02T11:29:08.985408,15.34403507,.00019962,53.1608,289.6718,33.5257,326.5871,0,U,66107,999,4053,.90367477E-3,.30283E-3,0
STARLINK-35590,2025-236Y,2026-07-02T13:42:20.593152,15.34398103,.00009563,53.1601,289.5371,79.6063,280.5047,0,U,66108,999,4048,.70777076E-3,.23611E-3,0
STARLINK-35545,2025-236Z,2026-07-02T13:21:07.048512,15.34351529,.00010498,53.1607,289.4463,106.9347,253.1771,0,U,66109,999,4054,.51325375E-3,.16978E-3,0
STARLINK-35427,2025-236AA,2026-07-02T00:23:46.457952,15.30229402,.00010473,53.1603,293.1835,141.4105,218.6971,0,U,66110,999,4044,.67412891E-3,.19678E-3,0
STARLINK-35574,2025-236AB,2026-07-02T11:19:07.861728,15.30180973,.00011711,53.1573,291.0464,110.2336,249.8791,0,U,66111,999,4045,.61814027E-3,.17982E-3,0
STARLINK-35531,2025-236AC,2026-07-02T01:00:06.526944,15.30197634,.00026432,53.1605,292.6274,79.3101,280.8197,0,U,66112,999,4045,.75013848E-3,.21922E-3,0
STARLINK-35491,2025-236AD,2026-07-02T14:24:12.063168,15.30174147,.00012388,53.1579,290.4275,114.9931,245.1198,0,U,66113,999,4053,.42493855E-3,.12237E-3,0
STARLINK-35496,2025-237A,2026-07-02T12:19:52.155840,15.34401761,.00008372,53.1586,225.3582,81.8511,278.2587,0,U,66114,999,4020,.83119326E-3,.27813E-3,0
STARLINK-35428,2025-237B,2026-07-02T13:08:48.280992,15.30210483,.00010566,53.1567,226.2793,89.0375,271.0746,0,U,66115,999,4018,.59605591E-3,.17341E-3,0
STARLINK-35573,2025-237C,2026-07-02T14:08:51.153216,15.34399864,.00014198,53.1584,225.1214,72.4122,287.7035,0,U,66116,999,4021,.87734541E-3,.29382E-3,0
STARLINK-35572,2025-237D,2026-07-02T12:59:41.188416,15.30211449,.00010351,53.1563,226.2373,75.7164,284.3952,0,U,66117,999,4019,.76702481E-3,.22435E-3,0
STARLINK-35468,2025-237E,2026-07-02T10:09:49.297536,15.30193570,.00009822,53.1567,226.9256,93.6474,266.4640,0,U,66118,999,4017,.48332939E-3,.1398E-3,0
STARLINK-35547,2025-237F,2026-07-02T11:49:42.046464,15.34399123,.00011936,53.1577,225.9348,87.7023,272.4116,0,U,66119,999,4019,.6892027E-3,.2298E-3,0
STARLINK-35553,2025-237G,2026-07-02T12:07:44.978016,15.34404638,.00011262,53.1586,225.3070,76.4034,283.7094,0,U,66120,999,4020,.49260142E-3,.16306E-3,0
STARLINK-35631,2025-237H,2026-07-02T11:40:49.815552,15.30205442,.0001225,53.1573,226.6051,91.4179,268.6963,0,U,66121,999,4018,.57051342E-3,.16578E-3,0
STARLINK-35653,2025-237J,2026-07-02T09:48:32.772960,15.30202372,.00010097,53.1566,226.8288,87.9963,272.1154,0,U,66122,999,4017,.83670095E-3,.24505E-3,0
STARLINK-35628,2025-237K,2026-07-02T12:44:06.730944,15.34397659,.0001214,53.1573,225.4591,68.1468,291.9664,0,U,66123,999,4020,.10415016E-2,.34974E-3,0
STARLINK-35645,2025-237L,2026-07-02T14:11:50.478144,15.34415161,.00010755,53.1575,225.1268,73.4984,286.6137,0,U,66124,999,4021,.71052344E-3,.23717E-3,0
STARLINK-35649,2025-237M,2026-07-02T12:31:59.369952,15.34391744,.0001287,53.1587,225.4058,83.0401,277.0748,0,U,66125,999,4020,.11156297E-2,.37496E-3,0
STARLINK-35658,2025-237N,2026-07-02T12:13:48.695232,15.34396874,.00011177,53.1580,225.3287,76.2430,283.8696,0,U,66126,999,4019,.70855195E-3,.23636E-3,0
STARLINK-35629,2025-237P,2026-07-02T13:25:31.396224,15.30195210,.00013271,53.1561,226.3446,83.5728,276.5423,0,U,66127,999,4019,.33405809E-3,.9546E-4,0
STARLINK-35612,2025-237Q,2026-07-02T10:05:15.891648,15.30200446,.00012186,53.1569,226.9012,73.1138,286.9997,0,U,66128,999,4017,.71285683E-3,.20813E-3,0
STARLINK-35632,2025-237R,2026-07-02T09:56:08.029248,15.30180386,.00007516,53.1567,226.8622,92.0313,268.0774,0,U,66129,999,4017,.78312917E-3,.22892E-3,0
STARLINK-35637,2025-237S,2026-07-02T12:55:06.863232,15.30225522,.00010526,53.1572,226.2162,68.7672,291.3441,0,U,66130,999,4019,.59893795E-3,.17435E-3,0
STARLINK-35630,2025-237T,2026-07-02T12:10:46.875072,15.34387550,.00011347,53.1584,225.3169,66.9469,293.1654,0,U,66131,999,4020,.65857266E-3,.21931E-3,0
STARLINK-34412,2025-237U,2026-07-02T12:47:08.423232,15.34400090,.00011308,53.1579,225.4720,90.3320,269.7812,0,U,66132,999,4011,.54377559E-3,.1804E-3,0
STARLINK-35520,2025-237V,2026-07-02T12:16:50.556864,15.34412704,.00011631,53.1579,225.3421,65.6144,294.4980,0,U,66133,999,4020,.58186402E-3,.19342E-3,0
STARLINK-35525,2025-237W,2026-07-02T12:41:04.561728,15.34409315,.00012127,53.1575,225.4478,68.2014,291.9118,0,U,66134,999,4020,.90133737E-3,.30209E-3,0
STARLINK-34852,2025-237X,2026-07-02T13:05:46.165344,15.30200603,.00011158,53.1566,226.2576,93.1126,267.0003,0,U,66135,999,4015,.38382915E-3,.11026E-3,0
STARLINK-35592,2025-237Y,2026-07-02T07:44:32.672832,15.34425454,.00013305,53.1583,226.2908,126.8526,233.2598,0,U,66136,999,4017,.14371698E-2,.48535E-3,0
STARLINK-35576,2025-237Z,2026-07-02T09:15:18.481248,15.34402835,.00012161,53.1582,225.9727,91.4603,268.6539,0,U,66137,999,4018,.83510401E-3,.27947E-3,0
STARLINK-35623,2025-237AA,2026-07-02T11:48:24.877440,15.30207562,.00017418,53.1567,226.6306,87.8246,272.2954,0,U,66138,999,4018,-.53101682E-3,-.16057E-3,0
STARLINK-35549,2025-237AB,2026-07-02T11:55:45.550272,15.34417139,.00013439,53.1586,225.9556,129.6092,230.5030,0,U,66139,999,4019,.35926598E-3,.11788E-3,0
STARLINK-35625,2025-237AC,2026-07-02T12:28:58.158048,15.34408802,.00011526,53.1584,225.3906,80.5643,279.5489,0,U,66140,999,4020,.62398661E-3,.2077E-3,0
STARLINK-35603,2025-237AD,2026-07-02T12:50:10.100832,15.34394354,.00010684,53.1575,225.4827,75.6626,284.4495,0,U,66141,999,4020,.54629925E-3,.18123E-3,0
STARLINK-35318,2025-240A,2026-07-02T13:50:54.294720,15.34390000,.00010078,53.1582,247.3797,87.4405,272.6713,0,U,66146,999,3965,.70491229E-3,.23507E-3,0
STARLINK-33948,2025-240B,2026-07-02T14:00:01.999872,15.34358386,.00014862,53.1577,249.1131,78.8000,139.2194,0,U,66147,999,571,.14491134E-2,.48839E-3,0
STARLINK-35081,2025-240C,2026-07-02T10:37:14.977344,15.34394250,.00013194,53.1593,247.9492,100.4858,259.6293,0,U,66148,999,3958,.73624604E-3,.24576E-3,0
STARLINK-35601,2025-240D,2026-07-02T14:32:15.873792,15.31811177,.00013779,53.1580,248.9714,111.6241,248.4907,0,U,66149,999,3958,.21833676E-1,.72955E-2,0
STARLINK-35605,2025-240E,2026-07-02T11:08:15.422496,15.34389061,.00012767,53.1592,249.5107,65.9574,294.1562,0,U,66150,999,3956,.96588921E-3,.32388E-3,0
STARLINK-35540,2025-240F,2026-07-02T13:29:41.571744,15.34398728,.00011357,53.1587,247.2811,84.9707,275.1426,0,U,66151,999,3960,.39269228E-3,.12914E-3,0
STARLINK-35455,2025-240G,2026-07-02T10:28:09.810624,15.34383059,.00013531,53.1591,247.9190,108.8374,251.2775,0,U,66152,999,3958,.34139617E-3,.11169E-3,0
STARLINK-34752,2025-240H,2026-07-02T14:15:08.765280,15.34383308,.0001107,53.1570,247.4810,64.8733,295.2384,0,U,66153,999,3960,.48823933E-3,.16147E-3,0
